NORAD_CAT_ID,OBJECT_NAME,OBJECT_TYPE,EPOCH,MEAN_MOTION,ECCENTRICITY,INCLINATION,RA_OF_ASC_NODE,ARG_OF_PERICENTER,MEAN_ANOMALY,BSTAR,MEAN_MOTION_DOT,MEAN_MOTION_DDOT,TLE_LINE0,TLE_LINE1,TLE_LINE2,SEMIMAJOR_AXIS,PERIOD,APOGEE,PERIGEE,DECAYED
53707.0,STARLINK-4667,PAYLOAD,2023-11-06 14:04:49,15.08806958,0.0001355,53.2169,103.3506,76.9995,283.1148,-0.00089524,-0.00014494,0.0,0 STARLINK-4667,1 53707U 22107H   23310.58668526 -.00014494  00000-0 -89524-3 0  9994,2 53707  53.2169 103.3506 0001355  76.9995 283.1148 15.08806958 66129,6917.981,95.44,540.784,538.909,0.0
53707.0,STARLINK-4667,PAYLOAD,2023-11-06 17:15:35,15.08805571,0.0001347,53.2172,102.7558,83.0509,277.0636,-0.0010415,-0.00016809,0.0,0 STARLINK-4667,1 53707U 22107H   23310.71916320 -.00016809  00000-0 -10415-2 0  9991,2 53707  53.2172 102.7558 0001347  83.0509 277.0636 15.08805571 65396,6917.986,95.44,540.782,538.919,0.0
53707.0,STARLINK-4667,PAYLOAD,2023-11-07 09:09:28,15.08814722,0.0001276,53.2163,99.7792,77.0454,283.068,-0.00039335,-6.538e-05,0.0,0 STARLINK-4667,1 53707U 22107H   23311.38157757 -.00006538  00000-0 -39335-3 0  9997,2 53707  53.2163  99.7792 0001276  77.0454 283.0680 15.08814722 65499,6917.958,95.439,540.705,538.94,0.0
53707.0,STARLINK-4667,PAYLOAD,2023-11-07 13:55:37,15.08818677,0.0001527,53.2175,98.8937,96.2567,263.8599,-0.00023423,-4.012e-05,0.0,0 STARLINK-4667,1 53707U 22107H   23311.58029823 -.00004012  00000-0 -23423-3 0  9997,2 53707  53.2175  98.8937 0001527  96.2567 263.8599 15.08818677 66275,6917.946,95.439,540.867,538.754,0.0
53707.0,STARLINK-4667,PAYLOAD,2023-11-07 17:06:23,15.08827416,0.0001351,53.2167,98.2957,84.2865,275.8281,2.8993e-06,-2.42e-06,0.0,0 STARLINK-4667,1 53707U 22107H   23311.71277774 -.00000242  00000-0  28993-5 0  9991,2 53707  53.2167  98.2957 0001351  84.2865 275.8281 15.08827416 65546,6917.919,95.438,540.718,538.849,0.0
53707.0,STARLINK-4667,PAYLOAD,2023-11-08 02:38:42,15.08851209,5.48e-05,53.2172,96.5148,152.7924,207.3097,0.00055168,8.506e-05,0.0,0 STARLINK-4667,1 53707U 22107H   23312.11020886  .00008506  00000-0  55168-3 0  9998,2 53707  53.2172  96.5148 0000548 152.7924 207.3097 15.08851209 65608,6917.846,95.437,540.09,539.332,0.0
53707.0,STARLINK-4667,PAYLOAD,2023-11-08 10:35:38,15.08845418,0.0002013,53.2177,95.0306,103.8918,256.2298,0.00082006,0.00012789,0.0,0 STARLINK-4667,1 53707U 22107H   23312.44142026  .00012789  00000-0  82006-3 0  9994,2 53707  53.2177  95.0306 0002013 103.8918 256.2298 15.08845418 65658,6917.864,95.437,541.121,538.336,0.0
53707.0,STARLINK-4667,PAYLOAD,2023-11-08 13:46:25,15.08836303,0.0001356,53.217,94.4304,84.9271,275.1876,0.00068116,0.00010568,0.0,0 STARLINK-4667,1 53707U 22107H   23312.57390178  .00010568  00000-0  68116-3 0  9990,2 53707  53.2170  94.4304 0001356  84.9271 275.1876 15.08836303 66423,6917.892,95.438,540.695,538.819,0.0
53707.0,STARLINK-4667,PAYLOAD,2023-11-08 16:57:10,15.08852202,0.0001497,53.2166,93.8349,97.5033,262.6129,0.00086832,0.00013563,0.0,0 STARLINK-4667,1 53707U 22107H   23312.70637498  .00013563  00000-0  86832-3 0  9997,2 53707  53.2166  93.8349 0001497  97.5033 262.6129 15.08852202 66442,6917.843,95.437,540.744,538.672,0.0
53707.0,STARLINK-4667,PAYLOAD,2023-11-09 02:29:29,15.08848281,0.0001534,53.2168,92.0513,91.1334,268.9834,0.00044919,6.87e-05,0.0,0 STARLINK-4667,1 53707U 22107H   23313.10381530  .00006870  00000-0  44919-3 0  9998,2 53707  53.2168  92.0513 0001534  91.1334 268.9834 15.08848281 65751,6917.855,95.437,540.781,538.659,0.0
53707.0,STARLINK-4667,PAYLOAD,2023-11-09 13:37:11,15.08848277,0.0001573,53.2166,89.9705,94.3699,265.7473,0.00017347,2.474e-05,0.0,0 STARLINK-4667,1 53707U 22107H   23313.56749185  .00002474  00000-0  17347-3 0  9993,2 53707  53.2166  89.9705 0001573  94.3699 265.7473 15.08848277 66579,6917.855,95.437,540.808,538.632,0.0
53707.0,STARLINK-4667,PAYLOAD,2023-11-09 16:47:57,15.08854885,0.0001465,53.2167,89.374,92.6663,267.4497,0.00025475,3.77e-05,0.0,0 STARLINK-4667,1 53707U 22107H   23313.69996819  .00003770  00000-0  25475-3 0  9996,2 53707  53.2167  89.3740 0001465  92.6663 267.4497 15.08854885 66594,6917.835,95.437,540.713,538.686,0.0
53707.0,STARLINK-4667,PAYLOAD,2023-11-10 02:20:16,15.08848074,0.0001479,53.2167,87.591,84.829,275.2871,3.7498e-05,3.09e-06,0.0,0 STARLINK-4667,1 53707U 22107H   23314.09740875  .00000309  00000-0  37498-4 0  9994,2 53707  53.2167  87.5910 0001479  84.8290 275.2871 15.08848074 65907,6917.856,95.437,540.744,538.698,0.0
53707.0,STARLINK-4667,PAYLOAD,2023-11-10 13:27:58,15.08840132,0.0001204,53.217,85.5112,84.6154,275.4976,5.1924e-05,5.39e-06,0.0,0 STARLINK-4667,1 53707U 22107H   23314.56109109  .00000539  00000-0  51924-4 0  9990,2 53707  53.2170  85.5112 0001204  84.6154 275.4976 15.08840132 66722,6917.88,95.438,540.578,538.912,0.0
53707.0,STARLINK-4667,PAYLOAD,2023-11-10 16:38:44,15.08851476,0.0001503,53.2178,84.9138,82.7273,277.389,-8.1702e-05,-1.588e-05,0.0,0 STARLINK-4667,1 53707U 22107H   23314.69356592 -.00001588  00000-0 -81702-4 0  9998,2 53707  53.2178  84.9138 0001503  82.7273 277.3890 15.08851476 66745,6917.845,95.437,540.75,538.671,0.0
53707.0,STARLINK-4667,PAYLOAD,2023-11-11 14:54:08,15.08840284,0.0001556,53.2178,80.7525,93.2039,266.9131,3.6191e-05,2.88e-06,0.0,0 STARLINK-4667,1 53707U 22107H   23315.62093383  .00000288  00000-0  36191-4 0  9994,2 53707  53.2178  80.7525 0001556  93.2039 266.9131 15.08840284 66886,6917.88,95.438,540.821,538.668,0.0
53707.0,STARLINK-4667,PAYLOAD,2023-11-12 13:09:32,15.08837265,0.0001563,53.2181,76.5904,90.0931,270.024,0.00019677,2.845e-05,0.0,0 STARLINK-4667,1 53707U 22107H   23316.54829250  .00002845  00000-0  19677-3 0  9996,2 53707  53.2181  76.5904 0001563  90.0931 270.0240 15.08837265 67027,6917.889,95.438,540.835,538.672,0.0
53707.0,STARLINK-4667,PAYLOAD,2023-11-12 14:44:55,15.08850069,0.0001528,53.2183,76.2932,93.9182,266.1984,3.5995e-05,2.85e-06,0.0,0 STARLINK-4667,1 53707U 22107H   23316.61452709  .00000285  00000-0  35995-4 0  9993,2 53707  53.2183  76.2932 0001528  93.9182 266.1984 15.08850069 66283,6917.85,95.437,540.772,538.658,0.0
53707.0,STARLINK-4667,PAYLOAD,2023-11-13 11:24:55,15.08845727,0.0001545,53.2183,72.4273,93.3881,266.7288,0.00013166,1.808e-05,0.0,0 STARLINK-4667,1 53707U 22107H   23317.47564647  .00001808  00000-0  13166-3 0  9990,2 53707  53.2183  72.4273 0001545  93.3881 266.7288 15.08845727 66411,6917.863,95.437,540.797,538.659,0.0
53707.0,STARLINK-4667,PAYLOAD,2023-11-13 13:00:18,15.08845648,0.000154,53.2185,72.13,93.4315,266.6853,0.00012816,1.753e-05,0.0,0 STARLINK-4667,1 53707U 22107H   23317.54188646  .00001753  00000-0  12816-3 0  9999,2 53707  53.2185  72.1300 0001540  93.4315 266.6853 15.08845648 67172,6917.863,95.437,540.793,538.663,0.0
53707.0,STARLINK-4667,PAYLOAD,2023-11-14 11:15:43,15.08830957,0.000144,53.2193,67.9702,93.6177,266.498,1.5207e-05,-4.6e-07,0.0,0 STARLINK-4667,1 53707U 22107H   23318.46925857 -.00000046  00000-0  15207-4 0  9997,2 53707  53.2193  67.9702 0001440  93.6177 266.4980 15.08830957 66564,6917.908,95.438,540.769,538.777,0.0
53707.0,STARLINK-4667,PAYLOAD,2023-11-14 14:26:30,15.08832948,0.0001543,53.2193,67.3745,97.1264,262.9904,3.6161e-06,-2.3e-06,0.0,0 STARLINK-4667,1 53707U 22107H   23318.60173799 -.00000230  00000-0  36161-5 0  9991,2 53707  53.2193  67.3745 0001543  97.1264 262.9904 15.08832948 67330,6917.902,95.438,540.834,538.7,0.0
53707.0,STARLINK-4667,PAYLOAD,2023-11-15 12:41:54,15.08838194,0.0001151,53.2176,63.2085,98.7359,261.3763,-1.2323e-05,-4.84e-06,0.0,0 STARLINK-4667,1 53707U 22107H   23319.52909748 -.00000484  00000-0 -12323-4 0  9999,2 53707  53.2176  63.2085 0001151  98.7359 261.3763 15.08838194 67470,6917.886,95.438,540.547,538.955,0.0
53707.0,STARLINK-4667,PAYLOAD,2023-11-15 23:49:35,15.08837634,0.0001128,53.2176,61.1271,94.8314,265.2807,0.00010874,1.443e-05,0.0,0 STARLINK-4667,1 53707U 22107H   23319.99277535  .00001443  00000-0  10874-3 0  9994,2 53707  53.2176  61.1271 0001128  94.8314 265.2807 15.08837634 67544,6917.888,95.438,540.533,538.972,0.0
53707.0,STARLINK-4667,PAYLOAD,2023-11-16 17:18:50,15.08840423,0.0001109,53.2178,57.8562,93.3267,266.7852,0.00012644,1.725e-05,0.0,0 STARLINK-4667,1 53707U 22107H   23320.72141381  .00001725  00000-0  12644-3 0  9996,2 53707  53.2178  57.8562 0001109  93.3267 266.7852 15.08840423 66906,6917.879,95.438,540.511,538.977,0.0
53707.0,STARLINK-4667,PAYLOAD,2023-11-16 23:40:23,15.08836065,0.0001145,53.2179,56.6659,95.4482,264.664,6.7777e-05,7.91e-06,0.0,0 STARLINK-4667,1 53707U 22107H   23320.98637868  .00000791  00000-0  67777-4 0  9994,2 53707  53.2179  56.6659 0001145  95.4482 264.6640 15.08836065 66946,6917.892,95.438,540.55,538.965,0.0
53707.0,STARLINK-4667,PAYLOAD,2023-11-17 12:23:27,15.08849342,0.000165,53.2187,54.2863,108.2328,251.8844,0.0001141,1.529e-05,0.0,0 STARLINK-4667,1 53707U 22107H   23321.51629045  .00001529  00000-0  11410-3 0  9994,2 53707  53.2187  54.2863 0001650 108.2328 251.8844 15.08849342 67025,6917.852,95.437,540.858,538.575,0.0
53707.0,STARLINK-4667,PAYLOAD,2023-11-18 12:14:16,15.08831187,0.000155,53.219,49.825,91.5217,268.5952,-5.4939e-05,-1.162e-05,0.0,0 STARLINK-4667,1 53707U 22107H   23322.50991115 -.00001162  00000-0 -54939-4 0  9993,2 53707  53.2190  49.8250 0001550  91.5217 268.5952 15.08831187 67178,6917.907,95.438,540.845,538.7,0.0
53707.0,STARLINK-4667,PAYLOAD,2023-11-18 15:25:02,15.0882384,0.0001267,53.2184,49.2332,84.6673,275.4464,-3.1201e-05,-7.84e-06,0.0,0 STARLINK-4667,1 53707U 22107H   23322.64239507 -.00000784  00000-0 -31201-4 0  9994,2 53707  53.2184  49.2332 0001267  84.6673 275.4464 15.08823840 67947,6917.93,95.439,540.671,538.918,0.0
53707.0,STARLINK-4667,PAYLOAD,2023-11-19 12:05:03,15.08846393,0.0001618,53.2185,45.3705,69.1058,291.0107,-6.9077e-05,-1.387e-05,0.0,0 STARLINK-4667,1 53707U 22107H   23323.50350739 -.00001387  00000-0 -69077-4 0  9993,2 53707  53.2185  45.3705 0001618  69.1058 291.0107 15.08846393 67322,6917.861,95.437,540.845,538.607,0.0
